KUIPER-00035            
1 63748U 25088AA  26017.18258470  .00004338  00000+0  59875-3 0  9996
2 63748  51.9023 341.8854 0004904 264.6590  95.3813 14.79858870 39886
KUIPER-00037            
1 63749U 25088AB  26017.18361676 -.00008757  00000+0 -11213-2 0  9994
2 63749  51.9046 340.8189 0000741  66.2320 293.8720 14.79925398 40686
KUIPER-00038            
1 63750U 25088AC  26017.26743812 -.00002376  00000+0 -28278-3 0  9992
2 63750  51.9055 325.4739 0004675 284.5344  75.5099 14.79906126 39904
KUIPER-00039            
1 64500U 25134A   26017.24002025 -.00003210  00000+0 -39263-3 0  9994
2 64500  51.9031 100.5940 0002915 166.7456 193.3583 14.79881825 32456
KUIPER-00040            
1 64501U 25134B   26017.29506587 -.00007998  00000+0 -10180-2 0  9995
2 64501  51.9000 111.4999 0016393  96.9935 263.2893 14.79946269 32308
KUIPER-00041            
1 64502U 25134C   26017.29409923  .00000912  00000+0  14890-3 0  9992
2 64502  51.8992 112.8588 0012019 100.2965 259.9353 14.79917901 32281
KUIPER-00042            
1 64503U 25134D   26016.96017616 -.00000732  00000+0 -66492-4 0  9998
2 64503  51.9001 110.3421 0011923 107.9597 252.2666 14.79940668 32291
KUIPER-00043            
1 64504U 25134E   26017.23837301  .00004172  00000+0  57612-3 0  9994
2 64504  51.9012 101.5658 0002527 131.8802 228.2377 14.79922973 32441
