<?xml version="1.0" encoding="UTF-8"?>
<ndm xmlns:xsi="http://www.w3.org/2001/XMLSchema-instance" xsi:noNamespaceSchemaLocation="https://sanaregistry.org/r/ndmxml_unqualified/ndmxml-2.0.0-master-2.0.xsd">
<omm id="CCSDS_OMM_VERS" version="2.0">
<header><CREATION_DATE/><ORIGINATOR/></header><body><segment><metadata><OBJECT_NAME>KUIPER-00035</OBJECT_NAME><OBJECT_ID>2025-088AA</OBJECT_ID><CENTER_NAME>EARTH</CENTER_NAME><REF_FRAME>TEME</REF_FRAME><TIME_SYSTEM>UTC</TIME_SYSTEM><MEAN_ELEMENT_THEORY>SGP4</MEAN_ELEMENT_THEORY></metadata><data><meanElements><EPOCH>2026-01-17T04:22:55.318080</EPOCH><MEAN_MOTION>14.79858870</MEAN_MOTION><ECCENTRICITY>.00049044</ECCENTRICITY><INCLINATION>51.9023</INCLINATION><RA_OF_ASC_NODE>341.8854</RA_OF_ASC_NODE><ARG_OF_PERICENTER>264.6590</ARG_OF_PERICENTER><MEAN_ANOMALY>95.3813</MEAN_ANOMALY></meanElements><tleParameters><EPHEMERIS_TYPE>0</EPHEMERIS_TYPE><CLASSIFICATION_TYPE>U</CLASSIFICATION_TYPE><NORAD_CAT_ID>63748</NORAD_CAT_ID><ELEMENT_SET_NO>999</ELEMENT_SET_NO><REV_AT_EPOCH>3988</REV_AT_EPOCH><BSTAR>.59874902E-3</BSTAR><MEAN_MOTION_DOT>.4338E-4</MEAN_MOTION_DOT><MEAN_MOTION_DDOT>0</MEAN_MOTION_DDOT></tleParameters></data></segment></body></omm>
<omm id="CCSDS_OMM_VERS" version="2.0">
<header><CREATION_DATE/><ORIGINATOR/></header><body><segment><metadata><OBJECT_NAME>KUIPER-00037</OBJECT_NAME><OBJECT_ID>2025-088AB</OBJECT_ID><CENTER_NAME>EARTH</CENTER_NAME><REF_FRAME>TEME</REF_FRAME><TIME_SYSTEM>UTC</TIME_SYSTEM><MEAN_ELEMENT_THEORY>SGP4</MEAN_ELEMENT_THEORY></metadata><data><meanElements><EPOCH>2026-01-17T04:24:24.488064</EPOCH><MEAN_MOTION>14.79925398</MEAN_MOTION><ECCENTRICITY>.00007417</ECCENTRICITY><INCLINATION>51.9046</INCLINATION><RA_OF_ASC_NODE>340.8189</RA_OF_ASC_NODE><ARG_OF_PERICENTER>66.2320</ARG_OF_PERICENTER><MEAN_ANOMALY>293.8720</MEAN_ANOMALY></meanElements><tleParameters><EPHEMERIS_TYPE>0</EPHEMERIS_TYPE><CLASSIFICATION_TYPE>U</CLASSIFICATION_TYPE><NORAD_CAT_ID>63749</NORAD_CAT_ID><ELEMENT_SET_NO>999</ELEMENT_SET_NO><REV_AT_EPOCH>4068</REV_AT_EPOCH><BSTAR>-.11213226E-2</BSTAR><MEAN_MOTION_DOT>-.8757E-4</MEAN_MOTION_DOT><MEAN_MOTION_DDOT>0</MEAN_MOTION_DDOT></tleParameters></data></segment></body></omm>
<omm id="CCSDS_OMM_VERS" version="2.0">
<header><CREATION_DATE/><ORIGINATOR/></header><body><segment><metadata><OBJECT_NAME>KUIPER-00038</OBJECT_NAME><OBJECT_ID>2025-088AC</OBJECT_ID><CENTER_NAME>EARTH</CENTER_NAME><REF_FRAME>TEME</REF_FRAME><TIME_SYSTEM>UTC</TIME_SYSTEM><MEAN_ELEMENT_THEORY>SGP4</MEAN_ELEMENT_THEORY></metadata><data><meanElements><EPOCH>2026-01-17T06:25:06.653568</EPOCH><MEAN_MOTION>14.79906126</MEAN_MOTION><ECCENTRICITY>.0004675</ECCENTRICITY><INCLINATION>51.9055</INCLINATION><RA_OF_ASC_NODE>325.4739</RA_OF_ASC_NODE><ARG_OF_PERICENTER>284.5344</ARG_OF_PERICENTER><MEAN_ANOMALY>75.5099</MEAN_ANOMALY></meanElements><tleParameters><EPHEMERIS_TYPE>0</EPHEMERIS_TYPE><CLASSIFICATION_TYPE>U</CLASSIFICATION_TYPE><NORAD_CAT_ID>63750</NORAD_CAT_ID><ELEMENT_SET_NO>999</ELEMENT_SET_NO><REV_AT_EPOCH>3990</REV_AT_EPOCH><BSTAR>-.28277509E-3</BSTAR><MEAN_MOTION_DOT>-.2376E-4</MEAN_MOTION_DOT><MEAN_MOTION_DDOT>0</MEAN_MOTION_DDOT></tleParameters></data></segment></body></omm>
<omm id="CCSDS_OMM_VERS" version="2.0">
<header><CREATION_DATE/><ORIGINATOR/></header><body><segment><metadata><OBJECT_NAME>KUIPER-00039</OBJECT_NAME><OBJECT_ID>2025-134A</OBJECT_ID><CENTER_NAME>EARTH</CENTER_NAME><REF_FRAME>TEME</REF_FRAME><TIME_SYSTEM>UTC</TIME_SYSTEM><MEAN_ELEMENT_THEORY>SGP4</MEAN_ELEMENT_THEORY></metadata><data><meanElements><EPOCH>2026-01-17T05:45:37.749600</EPOCH><MEAN_MOTION>14.79881825</MEAN_MOTION><ECCENTRICITY>.0002915</ECCENTRICITY><INCLINATION>51.9031</INCLINATION><RA_OF_ASC_NODE>100.5940</RA_OF_ASC_NODE><ARG_OF_PERICENTER>166.7456</ARG_OF_PERICENTER><MEAN_ANOMALY>193.3583</MEAN_ANOMALY></meanElements><tleParameters><EPHEMERIS_TYPE>0</EPHEMERIS_TYPE><CLASSIFICATION_TYPE>U</CLASSIFICATION_TYPE><NORAD_CAT_ID>64500</NORAD_CAT_ID><ELEMENT_SET_NO>999</ELEMENT_SET_NO><REV_AT_EPOCH>3245</REV_AT_EPOCH><BSTAR>-.3926306E-3</BSTAR><MEAN_MOTION_DOT>-.321E-4</MEAN_MOTION_DOT><MEAN_MOTION_DDOT>0</MEAN_MOTION_DDOT></tleParameters></data></segment></body></omm>
<omm id="CCSDS_OMM_VERS" version="2.0">
<header><CREATION_DATE/><ORIGINATOR/></header><body><segment><metadata><OBJECT_NAME>KUIPER-00040</OBJECT_NAME><OBJECT_ID>2025-134B</OBJECT_ID><CENTER_NAME>EARTH</CENTER_NAME><REF_FRAME>TEME</REF_FRAME><TIME_SYSTEM>UTC</TIME_SYSTEM><MEAN_ELEMENT_THEORY>SGP4</MEAN_ELEMENT_THEORY></metadata><data><meanElements><EPOCH>2026-01-17T07:04:53.691168</EPOCH><MEAN_MOTION>14.79946269</MEAN_MOTION><ECCENTRICITY>.00163936</ECCENTRICITY><INCLINATION>51.9000</INCLINATION><RA_OF_ASC_NODE>111.4999</RA_OF_ASC_NODE><ARG_OF_PERICENTER>96.9935</ARG_OF_PERICENTER><MEAN_ANOMALY>263.2893</MEAN_ANOMALY></meanElements><tleParameters><EPHEMERIS_TYPE>0</EPHEMERIS_TYPE><CLASSIFICATION_TYPE>U</CLASSIFICATION_TYPE><NORAD_CAT_ID>64501</NORAD_CAT_ID><ELEMENT_SET_NO>999</ELEMENT_SET_NO><REV_AT_EPOCH>3230</REV_AT_EPOCH><BSTAR>-.10179941E-2</BSTAR><MEAN_MOTION_DOT>-.7998E-4</MEAN_MOTION_DOT><MEAN_MOTION_DDOT>0</MEAN_MOTION_DDOT></tleParameters></data></segment></body></omm>
<omm id="CCSDS_OMM_VERS" version="2.0">
<header><CREATION_DATE/><ORIGINATOR/></header><body><segment><metadata><OBJECT_NAME>KUIPER-00041</OBJECT_NAME><OBJECT_ID>2025-134C</OBJECT_ID><CENTER_NAME>EARTH</CENTER_NAME><REF_FRAME>TEME</REF_FRAME><TIME_SYSTEM>UTC</TIME_SYSTEM><MEAN_ELEMENT_THEORY>SGP4</MEAN_ELEMENT_THEORY></metadata><data><meanElements><EPOCH>2026-01-17T07:03:30.173472</EPOCH><MEAN_MOTION>14.79917901</MEAN_MOTION><ECCENTRICITY>.00120198</ECCENTRICITY><INCLINATION>51.8992</INCLINATION><RA_OF_ASC_NODE>112.8588</RA_OF_ASC_NODE><ARG_OF_PERICENTER>100.2965</ARG_OF_PERICENTER><MEAN_ANOMALY>259.9353</MEAN_ANOMALY></meanElements><tleParameters><EPHEMERIS_TYPE>0</EPHEMERIS_TYPE><CLASSIFICATION_TYPE>U</CLASSIFICATION_TYPE><NORAD_CAT_ID>64502</NORAD_CAT_ID><ELEMENT_SET_NO>999</ELEMENT_SET_NO><REV_AT_EPOCH>3228</REV_AT_EPOCH><BSTAR>.14889721E-3</BSTAR><MEAN_MOTION_DOT>.912E-5</MEAN_MOTION_DOT><MEAN_MOTION_DDOT>0</MEAN_MOTION_DDOT></tleParameters></data></segment></body></omm>
<omm id="CCSDS_OMM_VERS" version="2.0">
<header><CREATION_DATE/><ORIGINATOR/></header><body><segment><metadata><OBJECT_NAME>KUIPER-00042</OBJECT_NAME><OBJECT_ID>2025-134D</OBJECT_ID><CENTER_NAME>EARTH</CENTER_NAME><REF_FRAME>TEME</REF_FRAME><TIME_SYSTEM>UTC</TIME_SYSTEM><MEAN_ELEMENT_THEORY>SGP4</MEAN_ELEMENT_THEORY></metadata><data><meanElements><EPOCH>2026-01-16T23:02:39.220224</EPOCH><MEAN_MOTION>14.79940668</MEAN_MOTION><ECCENTRICITY>.00119239</ECCENTRICITY><INCLINATION>51.9001</INCLINATION><RA_OF_ASC_NODE>110.3421</RA_OF_ASC_NODE><ARG_OF_PERICENTER>107.9597</ARG_OF_PERICENTER><MEAN_ANOMALY>252.2666</MEAN_ANOMALY></meanElements><tleParameters><EPHEMERIS_TYPE>0</EPHEMERIS_TYPE><CLASSIFICATION_TYPE>U</CLASSIFICATION_TYPE><NORAD_CAT_ID>64503</NORAD_CAT_ID><ELEMENT_SET_NO>999</ELEMENT_SET_NO><REV_AT_EPOCH>3229</REV_AT_EPOCH><BSTAR>-.66491532E-4</BSTAR><MEAN_MOTION_DOT>-.732E-5</MEAN_MOTION_DOT><MEAN_MOTION_DDOT>0</MEAN_MOTION_DDOT></tleParameters></data></segment></body></omm>
<omm id="CCSDS_OMM_VERS" version="2.0">
<header><CREATION_DATE/><ORIGINATOR/></header><body><segment><metadata><OBJECT_NAME>KUIPER-00043</OBJECT_NAME><OBJECT_ID>2025-134E</OBJECT_ID><CENTER_NAME>EARTH</CENTER_NAME><REF_FRAME>TEME</REF_FRAME><TIME_SYSTEM>UTC</TIME_SYSTEM><MEAN_ELEMENT_THEORY>SGP4</MEAN_ELEMENT_THEORY></metadata><data><meanElements><EPOCH>2026-01-17T05:43:15.428064</EPOCH><MEAN_MOTION>14.79922973</MEAN_MOTION><ECCENTRICITY>.00025279</ECCENTRICITY><INCLINATION>51.9012</INCLINATION><RA_OF_ASC_NODE>101.5658</RA_OF_ASC_NODE><ARG_OF_PERICENTER>131.8802</ARG_OF_PERICENTER><MEAN_ANOMALY>228.2377</MEAN_ANOMALY></meanElements><tleParameters><EPHEMERIS_TYPE>0</EPHEMERIS_TYPE><CLASSIFICATION_TYPE>U</CLASSIFICATION_TYPE><NORAD_CAT_ID>64504</NORAD_CAT_ID><ELEMENT_SET_NO>999</ELEMENT_SET_NO><REV_AT_EPOCH>3244</REV_AT_EPOCH><BSTAR>.57611505E-3</BSTAR><MEAN_MOTION_DOT>.4172E-4</MEAN_MOTION_DOT><MEAN_MOTION_DDOT>0</MEAN_MOTION_DDOT></tleParameters></data></segment></body></omm>

</ndm>
